SATELIOT_2              
1 60534U 24149BU  26068.71101004  .00002267  00000+0  20754-3 0  9991
2 60534  97.6894 145.4857 0001885  85.8882 274.2555 14.95943652 85098
SKYCRAFT-4A             
1 64897U 25154J   26068.70823073  .00008187  00000+0  74814-3 0  9993
2 64897  97.6797 135.1070 0004874 223.0221 137.0620 14.95268947 32518
